[{"OBJECT_NAME":"PELICAN-6","OBJECT_ID":"2025-276AP","EPOCH":"2026-03-09T16:58:12.890496","MEAN_MOTION":15.2637798,"ECCENTRICITY":0.0003569,"INCLINATION":97.4276,"RA_OF_ASC_NODE":144.2072,"ARG_OF_PERICENTER":157.8575,"MEAN_ANOMALY":202.2819,"EPHEMERIS_TYPE":0,"CLASSIFICATION_TYPE":"U","NORAD_CAT_ID":66703,"ELEMENT_SET_NO":999,"REV_AT_EPOCH":1533,"BSTAR":0.0029725783,"MEAN_MOTION_DOT":0.00077979,"MEAN_MOTION_DDOT":0},{"OBJECT_NAME":"STARLINK-36462","OBJECT_ID":"2026-002S","EPOCH":"2026-03-08T02:31:06.610368","MEAN_MOTION":15.2763031,"ECCENTRICITY":0.00012654,"INCLINATION":42.9979,"RA_OF_ASC_NODE":334.466,"ARG_OF_PERICENTER":246.6854,"MEAN_ANOMALY":113.3865,"EPHEMERIS_TYPE":0,"CLASSIFICATION_TYPE":"U","NORAD_CAT_ID":67321,"ELEMENT_SET_NO":999,"REV_AT_EPOCH":1083,"BSTAR":0.0014934836,"MEAN_MOTION_DOT":0.00041128,"MEAN_MOTION_DDOT":0}]
